NORAD_CAT_ID,OBJECT_NAME,OBJECT_TYPE,EPOCH,MEAN_MOTION,ECCENTRICITY,INCLINATION,RA_OF_ASC_NODE,ARG_OF_PERICENTER,MEAN_ANOMALY,BSTAR,MEAN_MOTION_DOT,MEAN_MOTION_DDOT,TLE_LINE0,TLE_LINE1,TLE_LINE2,SEMIMAJOR_AXIS,PERIOD,APOGEE,PERIGEE,DECAYED
55289.0,STARLINK-5320,PAYLOAD,2024-07-31 21:57:40,14.98326457,0.0003019,69.9995,61.4889,271.2674,88.814,-9.4452e-05,-1.22e-05,0.0,0 STARLINK-5320,1 55289U 23010W   24213.91505125 -.00001220  00000-0 -94452-4 0  9990,2 55289  69.9995  61.4889 0003019 271.2674  88.8140 14.98326457 85524,6950.204,96.107,574.167,569.971,0.0
55289.0,STARLINK-5320,PAYLOAD,2024-08-01 13:58:59,14.98341519,0.0003524,69.9983,59.8057,270.2504,89.8252,0.00014994,1.697e-05,0.0,0 STARLINK-5320,1 55289U 23010W   24214.58263054  .00001697  00000-0  14994-3 0  9994,2 55289  69.9983  59.8057 0003524 270.2504  89.8252 14.98341519 85623,6950.157,96.106,574.472,569.573,0.0
55289.0,STARLINK-5320,PAYLOAD,2024-08-01 21:59:37,14.98362954,0.0003122,69.9994,58.9636,270.8371,89.243,0.0003393,3.961e-05,0.0,0 STARLINK-5320,1 55289U 23010W   24214.91640763  .00003961  00000-0  33930-3 0  9994,2 55289  69.9994  58.9636 0003122 270.8371  89.2430 14.98362954 85369,6950.091,96.105,574.126,569.786,0.0
55289.0,STARLINK-5320,PAYLOAD,2024-08-01 23:35:46,14.98355019,0.0002429,70.0018,58.7962,276.218,83.8702,0.00029262,3.402e-05,0.0,0 STARLINK-5320,1 55289U 23010W   24214.98317412  .00003402  00000-0  29262-3 0  9996,2 55289  70.0018  58.7962 0002429 276.2180  83.8702 14.98355019 85373,6950.116,96.105,573.669,570.292,0.0
55289.0,STARLINK-5320,PAYLOAD,2024-08-02 14:01:00,14.98324794,0.0002618,69.9991,57.2798,264.8269,95.2591,3.5933e-05,3.36e-06,0.0,0 STARLINK-5320,1 55289U 23010W   24215.58403625  .00000336  00000-0  35933-4 0  9991,2 55289  69.9991  57.2798 0002618 264.8269  95.2591 14.98324794 85461,6950.209,96.107,573.894,570.254,0.0
55289.0,STARLINK-5320,PAYLOAD,2024-08-02 20:25:33,14.98317,0.0003034,69.9996,56.6082,266.2263,93.8549,-0.00010956,-1.4e-05,0.0,0 STARLINK-5320,1 55289U 23010W   24215.85108618 -.00001400  00000-0 -10956-3 0  9997,2 55289  69.9996  56.6082 0003034 266.2263  93.8549 14.98317000 85502,6950.233,96.108,574.207,569.989,0.0
55289.0,STARLINK-5320,PAYLOAD,2024-08-02 22:01:41,14.98316874,0.0003026,69.9996,56.44,265.5691,94.5122,-0.00011005,-1.405e-05,0.0,0 STARLINK-5320,1 55289U 23010W   24215.91784655 -.00001405  00000-0 -11005-3 0  9996,2 55289  69.9996  56.4400 0003026 265.5691  94.5122 14.98316874 85820,6950.233,96.108,574.202,569.995,0.0
55289.0,STARLINK-5320,PAYLOAD,2024-08-03 14:03:02,14.98338179,0.0003105,69.9993,54.7571,260.1136,99.9673,-0.00036773,-4.479e-05,0.0,0 STARLINK-5320,1 55289U 23010W   24216.58544139 -.00004479  00000-0 -36773-3 0  9994,2 55289  69.9993  54.7571 0003105 260.1136  99.9673 14.98338179 85923,6950.168,96.106,574.191,569.875,0.0
55289.0,STARLINK-5320,PAYLOAD,2024-08-03 20:27:34,14.98339699,0.0002978,69.9996,54.0834,261.6295,98.4526,-0.00030125,-3.686e-05,0.0,0 STARLINK-5320,1 55289U 23010W   24216.85247752 -.00003686  00000-0 -30125-3 0  9999,2 55289  69.9996  54.0834 0002978 261.6295  98.4526 14.98339699 85659,6950.163,96.106,574.098,569.958,0.0
55289.0,STARLINK-5320,PAYLOAD,2024-08-03 22:03:41,14.98340595,0.0002936,69.9997,53.9153,261.2789,98.8038,-0.00027128,-3.329e-05,0.0,0 STARLINK-5320,1 55289U 23010W   24216.91923583 -.00003329  00000-0 -27128-3 0  9992,2 55289  69.9997  53.9153 0002936 261.2789  98.8038 14.98340595 85974,6950.16,96.106,574.066,569.985,0.0
55289.0,STARLINK-5320,PAYLOAD,2024-08-04 14:05:01,14.98326364,0.0003797,69.9987,52.2292,264.6298,95.4427,0.00021995,2.532e-05,0.0,0 STARLINK-5320,1 55289U 23010W   24217.58682624  .00002532  00000-0  21995-3 0  9993,2 55289  69.9987  52.2292 0003797 264.6298  95.4427 14.98326364 86072,6950.204,96.107,574.708,569.43,0.0
55289.0,STARLINK-5320,PAYLOAD,2024-08-04 20:29:32,14.98345845,0.0003046,69.9994,51.5579,263.2871,96.7941,0.00038617,4.52e-05,0.0,0 STARLINK-5320,1 55289U 23010W   24217.85384971  .00004520  00000-0  38617-3 0  9995,2 55289  69.9994  51.5579 0003046 263.2871  96.7941 14.98345845 85809,6950.144,96.106,574.126,569.892,0.0
55289.0,STARLINK-5320,PAYLOAD,2024-08-04 22:05:40,14.98347942,0.0003032,69.9995,51.3895,263.7382,96.3432,0.00040265,4.717e-05,0.0,0 STARLINK-5320,1 55289U 23010W   24217.92060733  .00004717  00000-0  40265-3 0  9990,2 55289  69.9995  51.3895 0003032 263.7382  96.3432 14.98347942 86123,6950.137,96.106,574.11,569.895,0.0
55289.0,STARLINK-5320,PAYLOAD,2024-08-05 06:06:22,14.98327249,0.0002965,69.9996,50.5479,272.1686,87.9133,0.00011655,1.298e-05,0.0,0 STARLINK-5320,1 55289U 23010W   24218.25442776  .00001298  00000-0  11655-3 0  9990,2 55289  69.9996  50.5479 0002965 272.1686  87.9133 14.98327249 85860,6950.201,96.107,574.127,570.006,0.0
55289.0,STARLINK-5320,PAYLOAD,2024-08-05 20:31:37,14.98303002,0.000311,69.9995,49.0334,268.1853,91.895,-0.00024999,-3.072e-05,0.0,0 STARLINK-5320,1 55289U 23010W   24218.85529884 -.00003072  00000-0 -24999-3 0  9991,2 55289  69.9995  49.0334 0003110 268.1853  91.8950 14.98303002 85958,6950.276,96.109,574.303,569.98,0.0
55289.0,STARLINK-5320,PAYLOAD,2024-08-05 22:07:45,14.98303706,0.0003088,69.9996,48.8651,268.286,91.7946,-0.00023591,-2.905e-05,0.0,0 STARLINK-5320,1 55289U 23010W   24218.92205900 -.00002905  00000-0 -23591-3 0  9990,2 55289  69.9996  48.8651 0003088 268.2860  91.7946 14.98303706 86272,6950.274,96.109,574.285,569.993,0.0
55289.0,STARLINK-5320,PAYLOAD,2024-08-06 06:08:26,14.98309521,0.0003067,69.9997,48.023,269.9871,90.0937,-0.00021088,-2.607e-05,0.0,0 STARLINK-5320,1 55289U 23010W   24219.25585918 -.00002607  00000-0 -21088-3 0  9995,2 55289  69.9997  48.0230 0003067 269.9871  90.0937 14.98309521 86010,6950.256,96.108,574.253,569.99,0.0
55289.0,STARLINK-5320,PAYLOAD,2024-08-06 14:09:06,14.98323124,0.0003128,69.9999,47.1815,269.2308,90.8492,-0.00033101,-4.04e-05,0.0,0 STARLINK-5320,1 55289U 23010W   24219.58965653 -.00004040  00000-0 -33101-3 0  9991,2 55289  69.9999  47.1815 0003128 269.2308  90.8492 14.98323124 86375,6950.214,96.107,574.253,569.905,0.0
55289.0,STARLINK-5320,PAYLOAD,2024-08-06 18:57:30,14.98325237,0.0003142,69.9998,46.6762,268.9554,91.1245,-0.00030713,-3.755e-05,0.0,0 STARLINK-5320,1 55289U 23010W   24219.78993555 -.00003755  00000-0 -30713-3 0  9993,2 55289  69.9998  46.6762 0003142 268.9554  91.1245 14.98325237 86090,6950.208,96.107,574.256,569.889,0.0
55289.0,STARLINK-5320,PAYLOAD,2024-08-06 22:09:46,14.98326061,0.0003139,69.9999,46.3396,269.4097,90.6702,-0.00027569,-3.381e-05,0.0,0 STARLINK-5320,1 55289U 23010W   24219.92345496 -.00003381  00000-0 -27569-3 0  9994,2 55289  69.9999  46.3396 0003139 269.4097  90.6702 14.98326061 86420,6950.205,96.107,574.252,569.888,0.0
55289.0,STARLINK-5320,PAYLOAD,2024-08-07 12:34:59,14.98306915,0.0003298,69.9998,44.8245,272.7979,87.2802,0.00028733,3.335e-05,0.0,0 STARLINK-5320,1 55289U 23010W   24220.52429576  .00003335  00000-0  28733-3 0  9995,2 55289  69.9998  44.8245 0003298 272.7979  87.2802 14.98306915 86516,6950.264,96.108,574.421,569.837,0.0
55289.0,STARLINK-5320,PAYLOAD,2024-08-07 20:35:39,14.983167,0.0003304,69.9999,43.9827,272.6128,87.4653,0.00030004,3.488e-05,0.0,0 STARLINK-5320,1 55289U 23010W   24220.85809358  .00003488  00000-0  30004-3 0  9994,2 55289  69.9999  43.9827 0003304 272.6128  87.4653 14.98316700 86256,6950.234,96.108,574.395,569.803,0.0
55289.0,STARLINK-5320,PAYLOAD,2024-08-08 14:13:07,14.98336015,0.0003335,70.0001,42.1317,273.2072,86.8705,0.00030729,3.576e-05,0.0,0 STARLINK-5320,1 55289U 23010W   24221.59244353  .00003576  00000-0  30729-3 0  9996,2 55289  70.0001  42.1317 0003335 273.2072  86.8705 14.98336015 86675,6950.174,96.107,574.357,569.721,0.0
55289.0,STARLINK-5320,PAYLOAD,2024-08-08 20:37:38,14.98345588,0.0003318,70.0002,41.4581,272.9013,87.1766,0.00032835,3.829e-05,0.0,0 STARLINK-5320,1 55289U 23010W   24221.85947522  .00003829  00000-0  32835-3 0  9994,2 55289  70.0002  41.4581 0003318 272.9013  87.1766 14.98345588 86400,6950.145,96.106,574.316,569.704,0.0
55289.0,STARLINK-5320,PAYLOAD,2024-08-08 22:13:46,14.98347419,0.0003309,70.0003,41.29,272.8869,87.1911,0.00034247,3.997e-05,0.0,0 STARLINK-5320,1 55289U 23010W   24221.92623304  .00003997  00000-0  34247-3 0  9996,2 55289  70.0003  41.2900 0003309 272.8869  87.1911 14.98347419 86724,6950.139,96.106,574.304,569.704,0.0
55289.0,STARLINK-5320,PAYLOAD,2024-08-09 12:39:00,14.98330249,0.0002818,70.0045,39.7766,256.4393,103.6452,0.00016446,1.87e-05,0.0,0 STARLINK-5320,1 55289U 23010W   24222.52708463  .00001870  00000-0  16446-3 0  9992,2 55289  70.0045  39.7766 0002818 256.4393 103.6452 14.98330249 86509,6950.192,96.107,574.016,570.099,0.0
55289.0,STARLINK-5320,PAYLOAD,2024-08-09 14:15:08,14.98338091,0.0003138,70.0007,39.6068,268.8791,91.2009,1.0326e-05,3e-07,0.0,0 STARLINK-5320,1 55289U 23010W   24222.59384437  .00000030  00000-0  10326-4 0  9999,2 55289  70.0007  39.6068 0003138 268.8791  91.2009 14.98338091 86824,6950.168,96.106,574.214,569.852,0.0
55289.0,STARLINK-5320,PAYLOAD,2024-08-09 20:39:40,14.98337845,0.0003255,70.0006,38.9334,269.7147,90.3639,7.1378e-06,-8e-08,0.0,0 STARLINK-5320,1 55289U 23010W   24222.86088313 -.00000008  00000-0  71378-5 0  9994,2 55289  70.0006  38.9334 0003255 269.7147  90.3639 14.98337845 86865,6950.169,96.106,574.296,569.771,0.0
55289.0,STARLINK-5320,PAYLOAD,2024-08-10 12:41:01,14.98336229,0.0003048,70.0016,37.251,268.6742,91.4068,-0.00017678,-2.202e-05,0.0,0 STARLINK-5320,1 55289U 23010W   24223.52848575 -.00002202  00000-0 -17678-3 0  9992,2 55289  70.0016  37.2510 0003048 268.6742  91.4068 14.98336229 86653,6950.174,96.107,574.157,569.92,0.0
55289.0,STARLINK-5320,PAYLOAD,2024-08-10 14:17:09,14.98336073,0.0003041,70.0016,37.0827,268.3696,91.7115,-0.00017484,-2.179e-05,0.0,0 STARLINK-5320,1 55289U 23010W   24223.59524544 -.00002179  00000-0 -17484-3 0  9994,2 55289  70.0016  37.0827 0003041 268.3696  91.7115 14.98336073 86978,6950.174,96.107,574.153,569.926,0.0
